[{"OBJECT_NAME":"STARLINK-30818","OBJECT_ID":"2023-170M","EPOCH":"2026-03-09T22:00:01.999584","MEAN_MOTION":15.26728011,"ECCENTRICITY":0.00017343,"INCLINATION":43.0009,"RA_OF_ASC_NODE":192.5311,"ARG_OF_PERICENTER":269.5729,"MEAN_ANOMALY":283.793,"EPHEMERIS_TYPE":0,"CLASSIFICATION_TYPE":"U","NORAD_CAT_ID":58217,"ELEMENT_SET_NO":999,"REV_AT_EPOCH":578,"BSTAR":0.00072234449,"MEAN_MOTION_DOT":0.00019159,"MEAN_MOTION_DDOT":0},{"OBJECT_NAME":"FLOCK 4G-9","OBJECT_ID":"2025-009P","EPOCH":"2026-03-09T19:25:28.387776","MEAN_MOTION":15.26202239,"ECCENTRICITY":0.00036141,"INCLINATION":97.4,"RA_OF_ASC_NODE":150.6115,"ARG_OF_PERICENTER":328.2191,"MEAN_ANOMALY":31.8829,"EPHEMERIS_TYPE":0,"CLASSIFICATION_TYPE":"U","NORAD_CAT_ID":62622,"ELEMENT_SET_NO":999,"REV_AT_EPOCH":6369,"BSTAR":0.00041816911,"MEAN_MOTION_DOT":0.00010752,"MEAN_MOTION_DDOT":0}]
